[{"OBJECT_NAME":"STARLINK-31470","OBJECT_ID":"2024-076F","EPOCH":"2026-03-09T05:48:55.980576","MEAN_MOTION":15.27568468,"ECCENTRICITY":0.00015179,"INCLINATION":43.0015,"RA_OF_ASC_NODE":8.1268,"ARG_OF_PERICENTER":254.4295,"MEAN_ANOMALY":105.639,"EPHEMERIS_TYPE":0,"CLASSIFICATION_TYPE":"U","NORAD_CAT_ID":59569,"ELEMENT_SET_NO":999,"REV_AT_EPOCH":10638,"BSTAR":-0.00012461591,"MEAN_MOTION_DOT":-3.688e-5,"MEAN_MOTION_DDOT":0},{"OBJECT_NAME":"NUSAT-50 (NANCY ROMAN)","OBJECT_ID":"2024-149AB","EPOCH":"2026-03-09T19:15:16.765632","MEAN_MOTION":15.29713355,"ECCENTRICITY":0.00025229,"INCLINATION":97.3817,"RA_OF_ASC_NODE":150.7693,"ARG_OF_PERICENTER":238.0469,"MEAN_ANOMALY":122.0527,"EPHEMERIS_TYPE":0,"CLASSIFICATION_TYPE":"U","NORAD_CAT_ID":60493,"ELEMENT_SET_NO":999,"REV_AT_EPOCH":8693,"BSTAR":0.0004225155,"MEAN_MOTION_DOT":0.00012094,"MEAN_MOTION_DDOT":0}]
