STARLINK-31470          
1 59569U 24076F   26068.24231459 -.00003688  00000+0 -12462-3 0  9999
2 59569  43.0015   8.1268 0001517 254.4295 105.6390 15.27568468106383
NUSAT-50 (NANCY ROMAN)  
1 60493U 24149AB  26068.80227738  .00012094  00000+0  42252-3 0  9994
2 60493  97.3817 150.7693 0002523 238.0469 122.0527 15.29713355 86930
